[{"OBJECT_NAME":"ONEWEB-0234","OBJECT_ID":"2021-045S","EPOCH":"2025-09-18T02:30:16.592544","MEAN_MOTION":13.15551618,"ECCENTRICITY":0.00025518,"INCLINATION":87.9022,"RA_OF_ASC_NODE":313.4713,"ARG_OF_PERICENTER":112.8424,"MEAN_ANOMALY":247.2976,"EPHEMERIS_TYPE":0,"CLASSIFICATION_TYPE":"U","NORAD_CAT_ID":48783,"ELEMENT_SET_NO":999,"REV_AT_EPOCH":20870,"BSTAR":-0.0002741351,"MEAN_MOTION_DOT":-9.0e-7,"MEAN_MOTION_DDOT":0},{"OBJECT_NAME":"ONEWEB-0238","OBJECT_ID":"2021-045T","EPOCH":"2025-09-18T02:30:41.737536","MEAN_MOTION":13.15549006,"ECCENTRICITY":0.00021413,"INCLINATION":87.9022,"RA_OF_ASC_NODE":313.467,"ARG_OF_PERICENTER":104.077,"MEAN_ANOMALY":256.0598,"EPHEMERIS_TYPE":0,"CLASSIFICATION_TYPE":"U","NORAD_CAT_ID":48784,"ELEMENT_SET_NO":999,"REV_AT_EPOCH":20860,"BSTAR":-0.0001597456,"MEAN_MOTION_DOT":-4.7e-7,"MEAN_MOTION_DDOT":0},{"OBJECT_NAME":"ONEWEB-0240","OBJECT_ID":"2021-045U","EPOCH":"2025-09-17T16:04:10.320960","MEAN_MOTION":13.15548309,"ECCENTRICITY":0.00016964,"INCLINATION":87.903,"RA_OF_ASC_NODE":313.5387,"ARG_OF_PERICENTER":106.8525,"MEAN_ANOMALY":253.2791,"EPHEMERIS_TYPE":0,"CLASSIFICATION_TYPE":"U","NORAD_CAT_ID":48785,"ELEMENT_SET_NO":999,"REV_AT_EPOCH":20857,"BSTAR":0.00032746205,"MEAN_MOTION_DOT":1.36e-6,"MEAN_MOTION_DDOT":0},{"OBJECT_NAME":"ONEWEB-0246","OBJECT_ID":"2021-045V","EPOCH":"2025-09-18T01:03:47.281536","MEAN_MOTION":13.15549135,"ECCENTRICITY":0.00017593,"INCLINATION":87.903,"RA_OF_ASC_NODE":313.4767,"ARG_OF_PERICENTER":93.6768,"MEAN_ANOMALY":266.4563,"EPHEMERIS_TYPE":0,"CLASSIFICATION_TYPE":"U","NORAD_CAT_ID":48786,"ELEMENT_SET_NO":999,"REV_AT_EPOCH":20849,"BSTAR":0.0001916373,"MEAN_MOTION_DOT":8.5e-7,"MEAN_MOTION_DDOT":0},{"OBJECT_NAME":"ONEWEB-0210","OBJECT_ID":"2021-045W","EPOCH":"2025-09-18T02:16:48.365472","MEAN_MOTION":13.15549071,"ECCENTRICITY":0.00012902,"INCLINATION":87.903,"RA_OF_ASC_NODE":313.466,"ARG_OF_PERICENTER":83.2364,"MEAN_ANOMALY":276.8913,"EPHEMERIS_TYPE":0,"CLASSIFICATION_TYPE":"U","NORAD_CAT_ID":48787,"ELEMENT_SET_NO":999,"REV_AT_EPOCH":20854,"BSTAR":-0.0002696605,"MEAN_MOTION_DOT":-8.9e-7,"MEAN_MOTION_DDOT":0},{"OBJECT_NAME":"ONEWEB-0214","OBJECT_ID":"2021-045X","EPOCH":"2025-09-18T02:29:20.731488","MEAN_MOTION":13.15548153,"ECCENTRICITY":0.00016025,"INCLINATION":87.903,"RA_OF_ASC_NODE":313.4518,"ARG_OF_PERICENTER":83.7884,"MEAN_ANOMALY":276.3429,"EPHEMERIS_TYPE":0,"CLASSIFICATION_TYPE":"U","NORAD_CAT_ID":48788,"ELEMENT_SET_NO":999,"REV_AT_EPOCH":20851,"BSTAR":-0.00028873859,"MEAN_MOTION_DOT":-9.6e-7,"MEAN_MOTION_DDOT":0},{"OBJECT_NAME":"ONEWEB-0221","OBJECT_ID":"2021-045Y","EPOCH":"2025-09-17T15:42:28.136448","MEAN_MOTION":13.15550362,"ECCENTRICITY":0.00016902,"INCLINATION":87.902,"RA_OF_ASC_NODE":313.5666,"ARG_OF_PERICENTER":98.1634,"MEAN_ANOMALY":261.9688,"EPHEMERIS_TYPE":0,"CLASSIFICATION_TYPE":"U","NORAD_CAT_ID":48789,"ELEMENT_SET_NO":999,"REV_AT_EPOCH":20854,"BSTAR":8.5403993e-5,"MEAN_MOTION_DOT":4.5e-7,"MEAN_MOTION_DDOT":0},{"OBJECT_NAME":"ONEWEB-0213","OBJECT_ID":"2021-045Z","EPOCH":"2025-09-18T02:23:38.736096","MEAN_MOTION":13.1554979,"ECCENTRICITY":0.00016158,"INCLINATION":87.9022,"RA_OF_ASC_NODE":313.4868,"ARG_OF_PERICENTER":95.7731,"MEAN_ANOMALY":264.3584,"EPHEMERIS_TYPE":0,"CLASSIFICATION_TYPE":"U","NORAD_CAT_ID":48790,"ELEMENT_SET_NO":999,"REV_AT_EPOCH":20866,"BSTAR":-0.00018316207,"MEAN_MOTION_DOT":-5.6e-7,"MEAN_MOTION_DDOT":0},{"OBJECT_NAME":"ONEWEB-0212","OBJECT_ID":"2021-045AA","EPOCH":"2025-09-17T16:42:57.540384","MEAN_MOTION":13.15548388,"ECCENTRICITY":0.00019244,"INCLINATION":87.9027,"RA_OF_ASC_NODE":313.5501,"ARG_OF_PERICENTER":97.9766,"MEAN_ANOMALY":262.1583,"EPHEMERIS_TYPE":0,"CLASSIFICATION_TYPE":"U","NORAD_CAT_ID":48791,"ELEMENT_SET_NO":999,"REV_AT_EPOCH":20860,"BSTAR":0.00011540998,"MEAN_MOTION_DOT":5.6e-7,"MEAN_MOTION_DDOT":0},{"OBJECT_NAME":"ONEWEB-0227","OBJECT_ID":"2021-045AB","EPOCH":"2025-09-18T03:38:56.653440","MEAN_MOTION":13.15548972,"ECCENTRICITY":0.0001975,"INCLINATION":87.9019,"RA_OF_ASC_NODE":313.4779,"ARG_OF_PERICENTER":99.2101,"MEAN_ANOMALY":260.9253,"EPHEMERIS_TYPE":0,"CLASSIFICATION_TYPE":"U","NORAD_CAT_ID":48792,"ELEMENT_SET_NO":999,"REV_AT_EPOCH":20861,"BSTAR":1.401202e-6,"MEAN_MOTION_DOT":1.3e-7,"MEAN_MOTION_DDOT":0},{"OBJECT_NAME":"ONEWEB-0226","OBJECT_ID":"2021-045AC","EPOCH":"2025-09-18T03:29:48.931008","MEAN_MOTION":13.15548321,"ECCENTRICITY":0.00015162,"INCLINATION":87.9024,"RA_OF_ASC_NODE":313.486,"ARG_OF_PERICENTER":91.0034,"MEAN_ANOMALY":269.127,"EPHEMERIS_TYPE":0,"CLASSIFICATION_TYPE":"U","NORAD_CAT_ID":48793,"ELEMENT_SET_NO":999,"REV_AT_EPOCH":20858,"BSTAR":0.00035527143,"MEAN_MOTION_DOT":1.47e-6,"MEAN_MOTION_DDOT":0},{"OBJECT_NAME":"ONEWEB-0224","OBJECT_ID":"2021-045AD","EPOCH":"2025-09-18T02:37:20.493408","MEAN_MOTION":13.15547888,"ECCENTRICITY":0.00019536,"INCLINATION":87.9022,"RA_OF_ASC_NODE":313.5283,"ARG_OF_PERICENTER":126.4872,"MEAN_ANOMALY":233.6439,"EPHEMERIS_TYPE":0,"CLASSIFICATION_TYPE":"U","NORAD_CAT_ID":48794,"ELEMENT_SET_NO":999,"REV_AT_EPOCH":20850,"BSTAR":-0.00059510375,"MEAN_MOTION_DOT":-2.11e-6,"MEAN_MOTION_DDOT":0},{"OBJECT_NAME":"ONEWEB-0233","OBJECT_ID":"2021-045AE","EPOCH":"2025-09-18T02:43:59.052288","MEAN_MOTION":13.1554854,"ECCENTRICITY":0.00016221,"INCLINATION":87.9022,"RA_OF_ASC_NODE":313.5384,"ARG_OF_PERICENTER":103.4257,"MEAN_ANOMALY":256.7055,"EPHEMERIS_TYPE":0,"CLASSIFICATION_TYPE":"U","NORAD_CAT_ID":48795,"ELEMENT_SET_NO":999,"REV_AT_EPOCH":20852,"BSTAR":6.6706005e-5,"MEAN_MOTION_DOT":3.8e-7,"MEAN_MOTION_DDOT":0},{"OBJECT_NAME":"ONEWEB-0190","OBJECT_ID":"2021-045AF","EPOCH":"2025-09-18T02:25:54.155136","MEAN_MOTION":13.15550623,"ECCENTRICITY":0.00010764,"INCLINATION":87.9022,"RA_OF_ASC_NODE":313.5038,"ARG_OF_PERICENTER":100.3031,"MEAN_ANOMALY":259.8221,"EPHEMERIS_TYPE":0,"CLASSIFICATION_TYPE":"U","NORAD_CAT_ID":48796,"ELEMENT_SET_NO":999,"REV_AT_EPOCH":20859,"BSTAR":-0.00024019432,"MEAN_MOTION_DOT":-7.8e-7,"MEAN_MOTION_DDOT":0},{"OBJECT_NAME":"ONEWEB-0236","OBJECT_ID":"2021-045AG","EPOCH":"2025-09-17T15:53:53.885472","MEAN_MOTION":13.15549678,"ECCENTRICITY":0.00020197,"INCLINATION":87.9021,"RA_OF_ASC_NODE":313.602,"ARG_OF_PERICENTER":98.6524,"MEAN_ANOMALY":261.4836,"EPHEMERIS_TYPE":0,"CLASSIFICATION_TYPE":"U","NORAD_CAT_ID":48797,"ELEMENT_SET_NO":999,"REV_AT_EPOCH":20842,"BSTAR":0.00023640864,"MEAN_MOTION_DOT":1.02e-6,"MEAN_MOTION_DDOT":0},{"OBJECT_NAME":"ONEWEB-0248","OBJECT_ID":"2021-045AH","EPOCH":"2025-09-18T03:09:16.446240","MEAN_MOTION":13.15549642,"ECCENTRICITY":0.0001518,"INCLINATION":87.9032,"RA_OF_ASC_NODE":313.4639,"ARG_OF_PERICENTER":115.1487,"MEAN_ANOMALY":244.98,"EPHEMERIS_TYPE":0,"CLASSIFICATION_TYPE":"U","NORAD_CAT_ID":48798,"ELEMENT_SET_NO":999,"REV_AT_EPOCH":20864,"BSTAR":0.00042510793,"MEAN_MOTION_DOT":1.73e-6,"MEAN_MOTION_DDOT":0}]
