ONEWEB-0234             
1 48783U 21045S   25261.10435871 -.00000090  00000+0 -27414-3 0  9998
2 48783  87.9022 313.4713 0002551 112.8424 247.2976 13.15551618208707
ONEWEB-0238             
1 48784U 21045T   25261.10464974 -.00000047  00000+0 -15975-3 0  9996
2 48784  87.9022 313.4670 0002141 104.0770 256.0598 13.15549006208607
ONEWEB-0240             
1 48785U 21045U   25260.66956390  .00000136  00000+0  32746-3 0  9997
2 48785  87.9030 313.5387 0001696 106.8525 253.2791 13.15548309208570
ONEWEB-0246             
1 48786U 21045V   25261.04429724  .00000085  00000+0  19164-3 0  9999
2 48786  87.9030 313.4767 0001759  93.6768 266.4563 13.15549135208496
ONEWEB-0210             
1 48787U 21045W   25261.09500423 -.00000089  00000+0 -26966-3 0  9995
2 48787  87.9030 313.4660 0001290  83.2364 276.8913 13.15549071208545
ONEWEB-0214             
1 48788U 21045X   25261.10371217 -.00000096  00000+0 -28874-3 0  9993
2 48788  87.9030 313.4518 0001602  83.7884 276.3429 13.15548153208511
ONEWEB-0221             
1 48789U 21045Y   25260.65449232  .00000045  00000+0  85404-4 0  9991
2 48789  87.9020 313.5666 0001690  98.1634 261.9688 13.15550362208541
ONEWEB-0213             
1 48790U 21045Z   25261.09975389 -.00000056  00000+0 -18316-3 0  9990
2 48790  87.9022 313.4868 0001615  95.7731 264.3584 13.15549790208664
ONEWEB-0212             
1 48791U 21045AA  25260.69649931  .00000056  00000+0  11541-3 0  9998
2 48791  87.9027 313.5501 0001924  97.9766 262.1583 13.15548388208601
ONEWEB-0227             
1 48792U 21045AB  25261.15204460  .00000013  00000+0  14012-5 0  9996
2 48792  87.9019 313.4779 0001975  99.2101 260.9253 13.15548972208613
ONEWEB-0226             
1 48793U 21045AC  25261.14570522  .00000147  00000+0  35527-3 0  9991
2 48793  87.9024 313.4860 0001516  91.0034 269.1270 13.15548321208581
ONEWEB-0224             
1 48794U 21045AD  25261.10926497 -.00000211  00000+0 -59510-3 0  9996
2 48794  87.9022 313.5283 0001953 126.4872 233.6439 13.15547888208500
ONEWEB-0233             
1 48795U 21045AE  25261.11387792  .00000038  00000+0  66706-4 0  9998
2 48795  87.9022 313.5384 0001622 103.4257 256.7055 13.15548540208526
ONEWEB-0190             
1 48796U 21045AF  25261.10132124 -.00000078  00000+0 -24019-3 0  9991
2 48796  87.9022 313.5038 0001076 100.3031 259.8221 13.15550623208593
ONEWEB-0236             
1 48797U 21045AG  25260.66242923  .00000102  00000+0  23641-3 0  9997
2 48797  87.9021 313.6020 0002019  98.6524 261.4836 13.15549678208420
ONEWEB-0248             
1 48798U 21045AH  25261.13144035  .00000173  00000+0  42511-3 0  9991
2 48798  87.9032 313.4639 0001518 115.1487 244.9800 13.15549642208645
